[{"OBJECT_NAME":"QIANFAN-20","OBJECT_ID":"2024-185B","EPOCH":"2026-03-09T23:23:01.518432","MEAN_MOTION":14.08938537,"ECCENTRICITY":0.00078766,"INCLINATION":88.976,"RA_OF_ASC_NODE":68.3354,"ARG_OF_PERICENTER":72.8404,"MEAN_ANOMALY":287.3642,"EPHEMERIS_TYPE":0,"CLASSIFICATION_TYPE":"U","NORAD_CAT_ID":61553,"ELEMENT_SET_NO":999,"REV_AT_EPOCH":8177,"BSTAR":0.00032795523,"MEAN_MOTION_DOT":5.81e-6,"MEAN_MOTION_DDOT":0},{"OBJECT_NAME":"UNKNOWN","OBJECT_ID":"","EPOCH":"2026-03-08T15:32:05.156160","MEAN_MOTION":13.7167073,"ECCENTRICITY":0.0216769,"INCLINATION":99.8613,"RA_OF_ASC_NODE":216.0055,"ARG_OF_PERICENTER":94.9429,"MEAN_ANOMALY":331.7966,"EPHEMERIS_TYPE":0,"CLASSIFICATION_TYPE":"U","NORAD_CAT_ID":85210,"ELEMENT_SET_NO":999,"REV_AT_EPOCH":61393,"BSTAR":0.00037858,"MEAN_MOTION_DOT":3.59e-6,"MEAN_MOTION_DDOT":0}]
